[{"OBJECT_NAME":"STARLINK-36826","OBJECT_ID":"2026-035G","EPOCH":"2026-03-03T14:00:03.000384","MEAN_MOTION":16.00854942,"ECCENTRICITY":0.00011365,"INCLINATION":97.2777,"RA_OF_ASC_NODE":354.4416,"ARG_OF_PERICENTER":85.5217,"MEAN_ANOMALY":14.0731,"EPHEMERIS_TYPE":0,"CLASSIFICATION_TYPE":"U","NORAD_CAT_ID":67885,"ELEMENT_SET_NO":999,"REV_AT_EPOCH":277,"BSTAR":-0.001628007,"MEAN_MOTION_DOT":-0.0086426,"MEAN_MOTION_DDOT":0.00025248916},{"OBJECT_NAME":"STARLINK-36390","OBJECT_ID":"2026-035H","EPOCH":"2026-03-03T14:00:03.000384","MEAN_MOTION":16.0097837,"ECCENTRICITY":0.00012017,"INCLINATION":97.2774,"RA_OF_ASC_NODE":354.4431,"ARG_OF_PERICENTER":94.7543,"MEAN_ANOMALY":8.6027,"EPHEMERIS_TYPE":0,"CLASSIFICATION_TYPE":"U","NORAD_CAT_ID":67886,"ELEMENT_SET_NO":999,"REV_AT_EPOCH":282,"BSTAR":-0.0016452446,"MEAN_MOTION_DOT":-0.00879501,"MEAN_MOTION_DDOT":0.00026118945},{"OBJECT_NAME":"STARLINK-36368","OBJECT_ID":"2026-035J","EPOCH":"2026-03-03T14:00:03.000384","MEAN_MOTION":16.01099817,"ECCENTRICITY":0.00012923,"INCLINATION":97.2772,"RA_OF_ASC_NODE":354.4446,"ARG_OF_PERICENTER":106.2695,"MEAN_ANOMALY":0.6544,"EPHEMERIS_TYPE":0,"CLASSIFICATION_TYPE":"U","NORAD_CAT_ID":67887,"ELEMENT_SET_NO":999,"REV_AT_EPOCH":277,"BSTAR":-0.0016896966,"MEAN_MOTION_DOT":-0.00909364,"MEAN_MOTION_DDOT":0.00027827726},{"OBJECT_NAME":"STARLINK-36801","OBJECT_ID":"2026-035K","EPOCH":"2026-03-03T14:00:03.000384","MEAN_MOTION":16.01232787,"ECCENTRICITY":0.00012405,"INCLINATION":97.277,"RA_OF_ASC_NODE":354.446,"ARG_OF_PERICENTER":74.015,"MEAN_ANOMALY":36.3277,"EPHEMERIS_TYPE":0,"CLASSIFICATION_TYPE":"U","NORAD_CAT_ID":67888,"ELEMENT_SET_NO":999,"REV_AT_EPOCH":277,"BSTAR":-0.001773332,"MEAN_MOTION_DOT":-0.00961273,"MEAN_MOTION_DDOT":0.00030893449},{"OBJECT_NAME":"STARLINK-36372","OBJECT_ID":"2026-035L","EPOCH":"2026-03-03T14:00:03.000384","MEAN_MOTION":16.01451415,"ECCENTRICITY":0.00012665,"INCLINATION":97.2766,"RA_OF_ASC_NODE":354.4486,"ARG_OF_PERICENTER":76.2123,"MEAN_ANOMALY":40.6975,"EPHEMERIS_TYPE":0,"CLASSIFICATION_TYPE":"U","NORAD_CAT_ID":67889,"ELEMENT_SET_NO":999,"REV_AT_EPOCH":277,"BSTAR":-0.0018585435,"MEAN_MOTION_DOT":-0.01019723,"MEAN_MOTION_DDOT":0.00034550047},{"OBJECT_NAME":"STARLINK-36363","OBJECT_ID":"2026-035M","EPOCH":"2026-03-03T14:00:03.000384","MEAN_MOTION":16.01360578,"ECCENTRICITY":0.00013124,"INCLINATION":97.277,"RA_OF_ASC_NODE":354.4477,"ARG_OF_PERICENTER":98.2889,"MEAN_ANOMALY":15.9482,"EPHEMERIS_TYPE":0,"CLASSIFICATION_TYPE":"U","NORAD_CAT_ID":67890,"ELEMENT_SET_NO":999,"REV_AT_EPOCH":277,"BSTAR":-0.0018378708,"MEAN_MOTION_DOT":-0.01003265,"MEAN_MOTION_DDOT":0.00033489041},{"OBJECT_NAME":"STARLINK-36816","OBJECT_ID":"2026-035N","EPOCH":"2026-03-03T14:00:03.000384","MEAN_MOTION":16.02855162,"ECCENTRICITY":0.00012119,"INCLINATION":97.2747,"RA_OF_ASC_NODE":354.4682,"ARG_OF_PERICENTER":93.6864,"MEAN_ANOMALY":72.8164,"EPHEMERIS_TYPE":0,"CLASSIFICATION_TYPE":"U","NORAD_CAT_ID":67891,"ELEMENT_SET_NO":999,"REV_AT_EPOCH":266,"BSTAR":-0.0017577838,"MEAN_MOTION_DOT":-0.01046168,"MEAN_MOTION_DDOT":0.00036819879},{"OBJECT_NAME":"STARLINK-36813","OBJECT_ID":"2026-035P","EPOCH":"2026-03-03T14:00:03.000384","MEAN_MOTION":16.02198218,"ECCENTRICITY":0.00013741,"INCLINATION":97.2747,"RA_OF_ASC_NODE":354.459,"ARG_OF_PERICENTER":106.1734,"MEAN_ANOMALY":38.2508,"EPHEMERIS_TYPE":0,"CLASSIFICATION_TYPE":"U","NORAD_CAT_ID":67892,"ELEMENT_SET_NO":999,"REV_AT_EPOCH":277,"BSTAR":-0.0018207171,"MEAN_MOTION_DOT":-0.01042896,"MEAN_MOTION_DDOT":0.00036328086},{"OBJECT_NAME":"STARLINK-36803","OBJECT_ID":"2026-035Q","EPOCH":"2026-03-03T14:00:03.000384","MEAN_MOTION":16.01562898,"ECCENTRICITY":0.00011828,"INCLINATION":97.2765,"RA_OF_ASC_NODE":354.4504,"ARG_OF_PERICENTER":79.4074,"MEAN_ANOMALY":41.6774,"EPHEMERIS_TYPE":0,"CLASSIFICATION_TYPE":"U","NORAD_CAT_ID":67893,"ELEMENT_SET_NO":999,"REV_AT_EPOCH":277,"BSTAR":-0.0018714874,"MEAN_MOTION_DOT":-0.01033313,"MEAN_MOTION_DDOT":0.00035452676},{"OBJECT_NAME":"STARLINK-36846","OBJECT_ID":"2026-035R","EPOCH":"2026-03-03T14:00:03.000384","MEAN_MOTION":16.01785244,"ECCENTRICITY":0.00013036,"INCLINATION":97.2762,"RA_OF_ASC_NODE":354.4539,"ARG_OF_PERICENTER":97.9758,"MEAN_ANOMALY":31.6036,"EPHEMERIS_TYPE":0,"CLASSIFICATION_TYPE":"U","NORAD_CAT_ID":67894,"ELEMENT_SET_NO":999,"REV_AT_EPOCH":277,"BSTAR":-0.0018638034,"MEAN_MOTION_DOT":-0.01042309,"MEAN_MOTION_DDOT":0.00036117874},{"OBJECT_NAME":"STARLINK-36866","OBJECT_ID":"2026-035S","EPOCH":"2026-03-03T14:00:03.000384","MEAN_MOTION":16.01888267,"ECCENTRICITY":0.00012011,"INCLINATION":97.276,"RA_OF_ASC_NODE":354.4554,"ARG_OF_PERICENTER":88.8027,"MEAN_ANOMALY":44.4623,"EPHEMERIS_TYPE":0,"CLASSIFICATION_TYPE":"U","NORAD_CAT_ID":67895,"ELEMENT_SET_NO":999,"REV_AT_EPOCH":277,"BSTAR":-0.0018580147,"MEAN_MOTION_DOT":-0.01045244,"MEAN_MOTION_DDOT":0.00036349658},{"OBJECT_NAME":"STARLINK-36877","OBJECT_ID":"2026-035T","EPOCH":"2026-03-03T14:00:03.000384","MEAN_MOTION":16.01676953,"ECCENTRICITY":0.00011997,"INCLINATION":97.2761,"RA_OF_ASC_NODE":354.452,"ARG_OF_PERICENTER":73.1923,"MEAN_ANOMALY":52.3197,"EPHEMERIS_TYPE":0,"CLASSIFICATION_TYPE":"U","NORAD_CAT_ID":67896,"ELEMENT_SET_NO":999,"REV_AT_EPOCH":277,"BSTAR":-0.0018709035,"MEAN_MOTION_DOT":-0.01039759,"MEAN_MOTION_DDOT":0.0003591032},{"OBJECT_NAME":"STARLINK-36870","OBJECT_ID":"2026-035U","EPOCH":"2026-03-03T14:00:03.000384","MEAN_MOTION":16.01999928,"ECCENTRICITY":0.00012374,"INCLINATION":97.2757,"RA_OF_ASC_NODE":354.4569,"ARG_OF_PERICENTER":79.617,"MEAN_ANOMALY":57.8697,"EPHEMERIS_TYPE":0,"CLASSIFICATION_TYPE":"U","NORAD_CAT_ID":67897,"ELEMENT_SET_NO":999,"REV_AT_EPOCH":277,"BSTAR":-0.0018492343,"MEAN_MOTION_DOT":-0.01047048,"MEAN_MOTION_DDOT":0.0003651306},{"OBJECT_NAME":"STARLINK-36810","OBJECT_ID":"2026-035V","EPOCH":"2026-03-03T14:00:03.000384","MEAN_MOTION":16.02088062,"ECCENTRICITY":0.00014135,"INCLINATION":97.2756,"RA_OF_ASC_NODE":354.4581,"ARG_OF_PERICENTER":104.7313,"MEAN_ANOMALY":36.1055,"EPHEMERIS_TYPE":0,"CLASSIFICATION_TYPE":"U","NORAD_CAT_ID":67898,"ELEMENT_SET_NO":999,"REV_AT_EPOCH":277,"BSTAR":-0.0018186901,"MEAN_MOTION_DOT":-0.01035164,"MEAN_MOTION_DDOT":0.00035785541},{"OBJECT_NAME":"STARLINK-36878","OBJECT_ID":"2026-035W","EPOCH":"2026-03-03T14:00:03.000384","MEAN_MOTION":16.02295648,"ECCENTRICITY":0.00012039,"INCLINATION":97.2753,"RA_OF_ASC_NODE":354.4611,"ARG_OF_PERICENTER":81.2545,"MEAN_ANOMALY":66.2,"EPHEMERIS_TYPE":0,"CLASSIFICATION_TYPE":"U","NORAD_CAT_ID":67899,"ELEMENT_SET_NO":999,"REV_AT_EPOCH":277,"BSTAR":-0.0018139938,"MEAN_MOTION_DOT":-0.01044909,"MEAN_MOTION_DDOT":0.00036499711},{"OBJECT_NAME":"STARLINK-36361","OBJECT_ID":"2026-035X","EPOCH":"2026-03-03T14:00:03.000384","MEAN_MOTION":16.02394845,"ECCENTRICITY":0.00011643,"INCLINATION":97.2753,"RA_OF_ASC_NODE":354.4625,"ARG_OF_PERICENTER":79.3531,"MEAN_ANOMALY":71.7281,"EPHEMERIS_TYPE":0,"CLASSIFICATION_TYPE":"U","NORAD_CAT_ID":67900,"ELEMENT_SET_NO":999,"REV_AT_EPOCH":277,"BSTAR":-0.0017848648,"MEAN_MOTION_DOT":-0.01034176,"MEAN_MOTION_DDOT":0.00035850153}]
